{
  "type": "FeatureCollection",
  "features": [
    {
      "type": "Feature",
      "properties": {
        "norad_id": 54259,
        "name": "EUTELSAT 10B",
        "group": "eutelsat",
        "lat": -0.042685092228451384,
        "lon": -56.42978701474325,
        "alt_km": 35788.8697003893,
        "timestamp": "2025-12-17T13:48:37.215895+00:00",
        "meta_object_name": "EUTELSAT 10B",
        "meta_object_id": "2022-157A",
        "meta_epoch": "2025-12-16T23:40:35.727168",
        "meta_mean_motion": 1.00271982,
        "meta_eccentricity": 6.86e-05,
        "meta_inclination": 0.0627,
        "meta_ra_of_asc_node": 98.9676,
        "meta_arg_of_pericenter": 20.2179,
        "meta_mean_anomaly": 331.8099,
        "meta_ephemeris_type": 0,
        "meta_classification_type": "U",
        "meta_norad_cat_id": 54259,
        "meta_element_set_no": 999,
        "meta_rev_at_epoch": 1120,
        "meta_bstar": 0,
        "meta_mean_motion_dot": 9.3e-07,
        "meta_mean_motion_ddot": 0,
        "tle_line1": "1 54259U 22157A   25350.98652462  .00000093  00000+0  00000+0 0  9999",
        "tle_line2": "2 54259   0.0627  98.9676 0000686  20.2179 331.8099  1.00271982 11205"
      },
      "geometry": {
        "type": "Point",
        "coordinates": [
          -56.42978701474325,
          -0.042685092228451384
        ]
      }
    },
    {
      "type": "Feature",
      "properties": {
        "norad_id": 59346,
        "name": "EUTELSAT 36D",
        "group": "eutelsat",
        "lat": -0.022432248901555058,
        "lon": -30.581647071732085,
        "alt_km": 35784.89971629356,
        "timestamp": "2025-12-17T13:48:37.215906+00:00",
        "meta_object_name": "EUTELSAT 36D",
        "meta_object_id": "2024-059A",
        "meta_epoch": "2025-12-16T15:14:19.027680",
        "meta_mean_motion": 1.00271145,
        "meta_eccentricity": 3.915e-05,
        "meta_inclination": 0.0246,
        "meta_ra_of_asc_node": 4.3594,
        "meta_arg_of_pericenter": 5.8864,
        "meta_mean_anomaly": 339.6859,
        "meta_ephemeris_type": 0,
        "meta_classification_type": "U",
        "meta_norad_cat_id": 59346,
        "meta_element_set_no": 999,
        "meta_rev_at_epoch": 631,
        "meta_bstar": 0,
        "meta_mean_motion_dot": 0,
        "meta_mean_motion_ddot": 0,
        "tle_line1": "1 59346U 24059A   25350.63494245  .00000000  00000+0  00000+0 0  9997",
        "tle_line2": "2 59346   0.0246   4.3594 0000391   5.8864 339.6859  1.00271145  6314"
      },
      "geometry": {
        "type": "Point",
        "coordinates": [
          -30.581647071732085,
          -0.022432248901555058
        ]
      }
    }
  ]
}